OBJECT_NAME,OBJECT_ID,EPOCH,MEAN_MOTION,ECCENTRICITY,INCLINATION,RA_OF_ASC_NODE,ARG_OF_PERICENTER,MEAN_ANOMALY,EPHEMERIS_TYPE,CLASSIFICATION_TYPE,NORAD_CAT_ID,ELEMENT_SET_NO,REV_AT_EPOCH,BSTAR,MEAN_MOTION_DOT,MEAN_MOTION_DDOT,SEMIMAJOR_AXIS,DEBRIS_TYPE,ORBITAL_PERIOD,ORBITAL_PERIOD_HOURS,ALTITUDE,PERIGEE,APOGEE
FENGYUN 1C DEB,1999-025BTK,2024-12-30T18:07:12.963360,14.22597263,0.0037507,98.5477,350.0884,122.9322,237.5473,0,U,31423,999,92034,0.00049123,1.064e-05,0.0,7194.719422549807,FENGYUN 1C,6073.401807323286,1.6870560575898017,823.719422549807,7167.7341884116495,7221.704656687965
FENGYUN 1C DEB,1999-025BTL,2024-12-30T21:26:40.083072,14.07936512,0.0093888,98.5286,63.7316,11.8461,348.4887,0,U,31424,999,90964,0.00060155,1.023e-05,0.0,7244.578570685726,FENGYUN 1C,6136.64374391717,1.7046232621992137,873.5785706857259,7176.560671401272,7312.59646997018
FENGYUN 1C DEB,1999-025BTN,2024-12-31T07:18:26.514720,13.86589489,0.0334166,98.5536,185.2648,59.0104,112.6225,0,U,31426,999,88765,0.0023808,4.262e-05,0.0,7318.744266271418,FENGYUN 1C,6231.119489033832,1.73086652473162,947.7442662714184,7074.176716623133,7563.311815919704
FENGYUN 1C DEB,1999-025BTP,2024-12-29T17:14:24.525024,14.47974139,0.0038003,98.6695,95.8621,358.9159,1.1944,0,U,31427,999,91825,0.0052668,0.00019734,0.0,7110.409902202292,FENGYUN 1C,5966.960704259763,1.6574890845166008,739.409902202292,7083.388211450952,7137.4315929536315
FENGYUN 1C DEB,1999-025BTQ,2024-12-31T08:08:29.370048,14.38928412,0.0068102,99.0025,313.0743,96.5727,56.6341,0,U,31428,999,92522,0.0025301,7.972e-05,0.0,7140.17817724253,FENGYUN 1C,6004.471602717482,1.6679087785326339,769.1781772425302,7091.552135819873,7188.804218665188
FENGYUN 1C DEB,1999-025BTR,2024-12-31T15:05:31.998048,14.20560626,0.0014369,98.7248,54.184,338.6823,175.3352,0,U,31429,999,91035,0.0028688,6.134e-05,0.0,7201.594423135429,FENGYUN 1C,6082.109154697466,1.6894747651937405,830.5944231354288,7191.246452108826,7211.9423941620325
FENGYUN 1C DEB,1999-025BTS,2024-12-29T02:39:23.202144,14.23348738,0.0027097,98.7745,62.1431,330.6894,94.2616,0,U,31430,999,91154,0.0024161,5.458e-05,0.0,7192.186837481421,FENGYUN 1C,6070.195277889348,1.6861653549692635,821.1868374814212,7172.698168807898,7211.675506154945
FENGYUN 1C DEB,1999-025BTT,2024-12-28T16:05:21.559488,14.00823868,0.0140565,98.5554,267.2392,358.1819,1.8819,0,U,31431,999,89640,0.004848,7.853e-05,0.0,7269.080628448501,FENGYUN 1C,6167.802380846755,1.7132784391240987,898.0806284485006,7166.902796594714,7371.258460302286
FENGYUN 1C DEB,1999-025BTV,2024-12-31T17:19:27.738048,14.20067174,0.0107201,98.4215,279.3586,321.504,58.8832,0,U,31433,999,90631,0.0097613,0.00022044,0.0,7203.262623749208,FENGYUN 1C,6084.222596217382,1.690061832282606,832.2626237492077,7126.0429280963535,7280.482319402061
FENGYUN 1C DEB,1999-025BTX,2024-12-31T05:32:19.707360,14.52301847,0.0152138,98.9981,145.8213,143.8732,217.2856,0,U,31435,999,93341,0.00085618,3.995e-05,0.0,7096.277357631672,FENGYUN 1C,5949.1797838341245,1.6525499399539234,725.2773576316722,6988.316013168136,7204.238702095208
FENGYUN 1C DEB,1999-025BTY,2024-12-30T10:19:35.593248,14.64228842,0.0077522,98.8986,176.035,254.2168,135.784,0,U,31436,999,91776,0.01123,0.00062276,0.0,7057.689315751493,FENGYUN 1C,5900.720256538534,1.6390889601495928,686.6893157514933,7002.976696637925,7112.401934865063
FENGYUN 1C DEB,1999-025BTZ,2024-12-28T10:55:08.713344,14.36007726,0.0017454,98.8851,66.3651,203.6825,156.3558,0,U,31437,999,91485,0.0051486,0.00014972,0.0,7149.856470396056,FENGYUN 1C,6016.684055220299,1.6713011264500832,778.8564703960556,7137.377110912626,7162.335829879484
FENGYUN 1C DEB,1999-025BUB,2024-12-31T19:56:22.842816,13.94479174,0.0139358,98.9229,18.0788,32.8373,141.1444,0,U,31439,999,58409,0.0023816,3.402e-05,0.0,7291.1128395975975,FENGYUN 1C,6195.8650579297655,1.7210736272027127,920.1128395975975,7189.505349287533,7392.720329907662
FENGYUN 1C DEB,1999-025BUC,2024-12-27T16:12:00.864000,14.3164796,0.0040426,98.7581,80.3777,292.4813,67.2091,0,U,31440,999,91683,0.0044203,0.00011859,0.0,7164.364646664574,FENGYUN 1C,6035.006530653921,1.6763907029594225,793.3646466645741,7135.401986143968,7193.32730718518
FENGYUN 1C DEB,1999-025BUD,2024-12-31T07:24:01.191168,14.48286044,0.0159535,99.3336,178.5062,304.9674,53.6622,0,U,31441,999,59027,0.010167,0.0004483,0.0,7109.388993374168,FENGYUN 1C,5965.675650878096,1.6571321252439157,738.3889933741684,6995.969356068374,7222.808630679963
FENGYUN 1C DEB,1999-025BUE,2024-12-31T11:31:48.027072,14.32659046,0.0079965,98.5458,91.2236,317.1141,42.3825,0,U,31442,999,92400,0.0012683,3.529e-05,0.0,7160.993460235476,FENGYUN 1C,6030.747380069496,1.67520760557486,789.993460235476,7103.730576030704,7218.2563444402485
FENGYUN 1C DEB,1999-025BUF,2024-12-29T10:47:48.975360,14.42588957,0.0208461,99.2307,67.8572,49.471,312.4428,0,U,31443,999,61909,0.0022842,9.812e-05,0.0,7128.094342569902,FENGYUN 1C,5989.235357911701,1.6636764883088058,757.0943425699024,6979.501375095256,7276.687310044549
FENGYUN 1C DEB,1999-025BUG,2024-12-30T11:50:18.705120,14.56899616,0.0082085,98.9268,273.0508,61.7013,299.2435,0,U,31444,999,92688,0.0069533,0.00032753,0.0,7081.33959579736,FENGYUN 1C,5930.405014395557,1.647334726220988,710.3395957973598,7023.212419725258,7139.466771869463
FENGYUN 1C DEB,1999-025BUK,2024-12-31T07:31:04.761984,14.23446825,0.0231831,99.0282,32.7462,271.2052,86.2577,0,U,31447,999,59922,0.00063877,1.86e-05,0.0,7191.856433787996,FENGYUN 1C,6069.776992335039,1.6860491645375109,820.8564337879961,7025.126906897845,7358.585960678147
FENGYUN 1C DEB,1999-025BUL,2024-12-30T19:59:23.011872,14.26055992,0.0061145,98.5146,20.5602,141.3073,219.2511,0,U,31448,999,91949,0.0018171,4.387e-05,0.0,7183.081424784713,FENGYUN 1C,6058.671494434112,1.6829643040094755,812.0814247847129,7139.160473412867,7227.002376156559
FENGYUN 1C DEB,1999-025BUM,2024-12-31T09:41:18.869568,14.33044639,0.0146073,98.602,61.9461,212.6334,146.5761,0,U,31449,999,92675,0.00078477,2.374e-05,0.0,7159.708851359395,FENGYUN 1C,6029.124671389501,1.6747568531637502,788.7088513593953,7055.124836254933,7264.2928664638575
FENGYUN 1C DEB,1999-025BUP,2024-12-29T21:24:06.864768,14.12956296,0.0032395,98.806,47.296,122.0116,51.9541,0,U,31451,999,91378,0.00088789,1.619e-05,0.0,7227.409940297902,FENGYUN 1C,6114.842201883194,1.6985672783008874,856.4099402979018,7203.996745796308,7250.823134799497
FENGYUN 1C DEB,1999-025BUQ,2024-12-31T10:47:46.113792,14.14398385,0.0041441,98.6319,358.1756,40.6873,319.7384,0,U,31452,999,91309,0.0011768,2.229e-05,0.0,7222.496501297982,FENGYUN 1C,6108.6076453610785,1.6968354570447441,851.4965012979819,7192.565753546953,7252.427249049011
FENGYUN 1C DEB,1999-025BUT,2024-12-31T06:19:54.070464,14.10819189,0.0218834,98.5546,4.1526,320.1356,38.3916,0,U,31455,999,91217,0.0010867,2.391e-05,0.0,7234.706812727562,FENGYUN 1C,6124.104956583039,1.7011402657175108,863.7068127275616,7076.386829661919,7393.026795793205
FENGYUN 1C DEB,1999-025BUU,2024-12-31T12:27:51.601536,14.39454547,0.007124,98.5756,101.8666,270.6441,88.6584,0,U,31456,999,92480,0.0027982,8.944e-05,0.0,7138.438200322317,FENGYUN 1C,6002.276908433262,1.6672991412314617,767.4382003223172,7087.583966583221,7189.292434061413
FENGYUN 1C DEB,1999-025BUX,2024-12-31T00:45:03.132864,14.38606677,0.0103201,98.1824,282.9678,102.1086,259.1688,0,U,31459,999,59562,0.0040066,0.00013033,0.0,7141.242707084158,FENGYUN 1C,6005.814463627268,1.668281795452019,770.2427070841577,7067.544368222778,7214.941045945537
FENGYUN 1C DEB,1999-025BVA,2024-12-28T00:31:20.304192,14.1239174,0.0033422,98.7174,25.2542,120.9737,269.0399,0,U,31462,999,90918,0.00072769,1.306e-05,0.0,7229.335754387295,FENGYUN 1C,6117.286403981208,1.6992462233281134,858.3357543872953,7205.173868428982,7253.497640345609
FENGYUN 1C DEB,1999-025BVB,2024-12-30T02:42:54.182304,14.35176044,0.0217861,99.0375,322.7528,338.489,20.7244,0,U,31463,999,59730,0.0020905,7.771e-05,0.0,7152.618423203019,FENGYUN 1C,6020.1707130762015,1.6722696425211672,781.6184232030191,6996.790762973275,7308.446083432762
FENGYUN 1C DEB,1999-025BVC,2024-12-31T09:04:52.262688,14.1194332,0.0044937,98.8412,52.8046,144.2562,228.0994,0,U,31464,999,89791,0.00083187,1.492e-05,0.0,7230.866319684157,FENGYUN 1C,6119.229196960513,1.6997858880445869,859.8663196841571,7198.3729757033925,7263.359663664922
FENGYUN 1C DEB,1999-025BVE,2024-12-26T12:21:27.741024,14.17921078,0.0300451,99.0746,276.948,228.1495,129.3679,0,U,31466,999,91446,0.0003691,1.123e-05,0.0,7210.529128835222,FENGYUN 1C,6093.431377989123,1.6926198272192008,839.5291288352219,6993.888060106455,7427.170197563989
FENGYUN 1C DEB,1999-025BVG,2024-12-31T18:01:46.928640,14.4438087,0.0172248,98.1622,9.7341,142.7412,218.5877,0,U,31468,999,62373,0.001248,5.111e-05,0.0,7122.197667311006,FENGYUN 1C,5981.805054090313,1.6616125150250871,751.1976673110057,6999.519236931107,7244.876097690903
FENGYUN 1C DEB,1999-025BVK,2024-12-30T13:01:54.639264,14.11271483,0.0155164,97.9996,279.9491,287.8159,70.614,0,U,31471,999,59072,0.0082988,0.00016775,0.0,7233.160977721746,FENGYUN 1C,6122.142261268494,1.7005950725745815,862.1609777217463,7120.928358727025,7345.393596716469
FENGYUN 1C DEB,1999-025BVM,2024-12-30T08:04:37.080192,14.26312008,0.0067976,98.5762,39.1128,312.9199,107.9128,0,U,31473,999,64562,0.0034092,8.351e-05,0.0,7182.2218471780925,FENGYUN 1C,6057.58399265847,1.6826622201829085,811.2218471780925,7133.399975949715,7231.04371840647
FENGYUN 1C DEB,1999-025BVN,2024-12-31T22:16:37.140960,14.08489504,0.0071644,99.163,41.1097,94.5397,266.396,0,U,31474,999,90098,0.0030597,5.333e-05,0.0,7242.682233664174,FENGYUN 1C,6134.234414711949,1.7039540040866525,871.6822336641744,7190.792761069311,7294.5717062590375
FENGYUN 1C DEB,1999-025BVP,2024-12-30T21:52:39.933120,14.35246098,0.0220192,98.9803,234.2093,47.745,314.218,0,U,31475,999,91098,0.0018594,6.959e-05,0.0,7152.385676308956,FENGYUN 1C,6019.876870062295,1.6721880194617487,781.3856763089561,6994.895865625173,7309.875486992738
